norad_id,name,regime,epoch,line1,line2,inclination,eccentricity,mean_motion,raan,arg_pericenter,mean_anomaly
26566,COSMOS 2374 (GLONASS),NSO,11161.26971651,1 26566U 00063C   11161.26971651 +.00000096 +00000-0 +10000-3 0 08450\,2 26566 064.5421 139.6475 0057555 215.5597 144.0497 02.13100389082922,64.5421,0.0057555,2.13100389,139.6475,215.5597,144.0497
26566,COSMOS 2374 (GLONASS),NSO,11163.14675925,1 26566U 00063C   11163.14675925 +.00000071 +00000-0 +10000-3 0 08468\,2 26566 064.5425 139.5843 0057583 215.5473 144.0552 02.13100392082968,64.5425,0.0057583,2.13100392,139.5843,215.5473,144.0552
26566,COSMOS 2374 (GLONASS),NSO,11164.08527790,1 26566U 00063C   11164.08527790  .00000055  00000-0  10000-3 0  8459\,2 26566 064.5426 139.5526 0057590 215.5498 144.0470 02.13100392 82983,64.5426,0.005759,2.13100392,139.5526,215.5498,144.047
26566,COSMOS 2374 (GLONASS),NSO,11165.02379646,1 26566U 00063C   11165.02379646 +.00000040 +00000-0 +10000-3 0 08464\,2 26566 064.5427 139.5209 0057600 215.5597 144.0312 02.13100390083001,64.5427,0.00576,2.1310039,139.5209,215.5597,144.0312
26566,COSMOS 2374 (GLONASS),NSO,11168.30862487,1 26566U 00063C   11168.30862487  .00000023  00000-0  10000-3 0  8469\,2 26566 064.5430 139.4101 0057619 215.5622 144.0188 02.13100386 83077,64.543,0.0057619,2.13100386,139.4101,215.5622,144.0188
26566,COSMOS 2374 (GLONASS),NSO,11169.24715312,1 26566U 00063C   11169.24715312 +.00000030 +00000-0 +10000-3 0 08476\,2 26566 064.5431 139.3784 0057626 215.5613 144.0213 02.13100386083093,64.5431,0.0057626,2.13100386,139.3784,215.5613,144.0213
26566,COSMOS 2374 (GLONASS),NSO,11170.18568258,1 26566U 00063C   11170.18568258 +.00000040 +00000-0 +10000-3 0 08488\,2 26566 064.5429 139.3473 0057638 215.5885 143.9963 02.13100382083118,64.5429,0.0057638,2.13100382,139.3473,215.5885,143.9963
26566,COSMOS 2374 (GLONASS),NSO,11171.12421322,1 26566U 00063C   11171.12421322  .00000050  00000-0  10000-3 0  8473\,2 26566 064.5429 139.3158 0057644 215.5837 144.0046 02.13100383 83139,64.5429,0.0057644,2.13100383,139.3158,215.5837,144.0046
26566,COSMOS 2374 (GLONASS),NSO,11173.00127394,1 26566U 00063C   11173.00127394 +.00000065 +00000-0 +10000-3 0 08481\,2 26566 064.5431 139.2523 0057674 215.5839 144.0118 02.13100391083175,64.5431,0.0057674,2.13100391,139.2523,215.5839,144.0118
26566,COSMOS 2374 (GLONASS),NSO,11175.34759223,1 26566U 00063C   11175.34759223 +.00000064 +00000-0 +10000-3 0 08481\,2 26566 064.5433 139.1730 0057675 215.5699 144.0281 02.13100391083228,64.5433,0.0057675,2.13100391,139.173,215.5699,144.0281
26566,COSMOS 2374 (GLONASS),NSO,11176.28611755,1 26566U 00063C   11176.28611755 +.00000059 +00000-0 +10000-3 0 08509\,2 26566 064.5434 139.1413 0057650 215.5970 144.0008 02.13100396083246,64.5434,0.005765,2.13100396,139.1413,215.597,144.0008
26566,COSMOS 2374 (GLONASS),NSO,11178.16316357,1 26566U 00063C   11178.16316357 +.00000047 +00000-0 +10000-3 0 08493\,2 26566 064.5435 139.0780 0057575 215.6753 143.9184 02.13100411083284,64.5435,0.0057575,2.13100411,139.078,215.6753,143.9184
26566,COSMOS 2374 (GLONASS),NSO,11179.10168487,1 26566U 00063C   11179.10168487 +.00000042 +00000-0 +10000-3 0 08504\,2 26566 064.5433 139.0466 0057575 215.6738 143.9163 02.13100413083308,64.5433,0.0057575,2.13100413,139.0466,215.6738,143.9163
26566,COSMOS 2374 (GLONASS),NSO,11181.91725442,1 26566U 00063C   11181.91725442  .00000039  00000-0  10000-3 0  8502\,2 26566 064.5437 138.9512 0057617 215.6930 143.8906 02.13100403 83362,64.5437,0.0057617,2.13100403,138.9512,215.693,143.8906
26566,COSMOS 2374 (GLONASS),NSO,11185.20210444,1 26566U 00063C   11185.20210444  .00000057  00000-0  10000-3 0  8510\,2 26566 064.5449 138.8410 0057382 215.5761 144.0141 02.13100457 83432,64.5449,0.0057382,2.13100457,138.841,215.5761,144.0141
26566,COSMOS 2374 (GLONASS),NSO,11188.01769727,1 26566U 00063C   11188.01769727  .00000061  00000-0  10000-3 0  8521\,2 26566 064.5444 138.7451 0057675 215.6482 143.9537 02.13100394 83490,64.5444,0.0057675,2.13100394,138.7451,215.6482,143.9537
26566,COSMOS 2374 (GLONASS),NSO,11188.95622062,1 26566U 00063C   11188.95622062 +.00000053 +00000-0 +10000-3 0 08536\,2 26566 064.5447 138.7131 0057639 215.6218 143.9772 02.13100389083513,64.5447,0.0057639,2.13100389,138.7131,215.6218,143.9772
26566,COSMOS 2374 (GLONASS),NSO,11190.36400677,1 26566U 00063C   11190.36400677  .00000033  00000-0  10000-3 0  8538\,2 26566 064.5449 138.6657 0057654 215.6047 143.9918 02.13100382 83542,64.5449,0.0057654,2.13100382,138.6657,215.6047,143.9918
26566,COSMOS 2374 (GLONASS),NSO,11191.77178866,1 26566U 00063C   11191.77178866 +.00000009 +00000-0 +10000-3 0 08540\,2 26566 064.5449 138.6186 0057620 215.5810 144.0087 02.13100372083570,64.5449,0.005762,2.13100372,138.6186,215.581,144.0087
26566,COSMOS 2374 (GLONASS),NSO,11192.24105137,1 26566U 00063C   11192.24105137 +.00000001 +00000-0 +10000-3 0 08557\,2 26566 064.5444 138.6031 0057562 215.5689 144.0196 02.13100364083586,64.5444,0.0057562,2.13100364,138.6031,215.5689,144.0196
26566,COSMOS 2374 (GLONASS),NSO,11193.17957513,1 26566U 00063C   11193.17957513 -.00000011  00000-0  10000-3 0  8544\,2 26566 064.5444 138.5715 0057586 215.5729 144.0133 02.13100358 83602,64.5444,0.0057586,2.13100358,138.5715,215.5729,144.0133
26566,COSMOS 2374 (GLONASS),NSO,11194.11809914,1 26566U 00063C   11194.11809914 -.00000018 +00000-0 +10000-3 0 08558\,2 26566 064.5443 138.5398 0057629 215.5722 144.0122 02.13100353083624,64.5443,0.0057629,2.13100353,138.5398,215.5722,144.0122
26566,COSMOS 2374 (GLONASS),NSO,11195.99515369,1 26566U 00063C   11195.99515369 -.00000014  00000-0  10000-3 0  8559\,2 26566 064.5441 138.4766 0057657 215.5694 144.0169 02.13100354 83665,64.5441,0.0057657,2.13100354,138.4766,215.5694,144.0169
26566,COSMOS 2374 (GLONASS),NSO,11197.87221622,1 26566U 00063C   11197.87221622 +.00000004 +00000-0 +10000-3 0 08563\,2 26566 064.5447 138.4131 0057706 215.5602 144.0341 02.13100355083709,64.5447,0.0057706,2.13100355,138.4131,215.5602,144.0341
26566,COSMOS 2374 (GLONASS),NSO,11198.34148238,1 26566U 00063C   11198.34148238  .00000009  00000-0  10000-3 0  8562\,2 26566 064.5447 138.3973 0057705 215.5624 144.0344 02.13100356 83710,64.5447,0.0057705,2.13100356,138.3973,215.5624,144.0344
26566,COSMOS 2374 (GLONASS),NSO,11199.28001503,1 26566U 00063C   11199.28001503 +.00000019 +00000-0 +10000-3 0 08571\,2 26566 064.5446 138.3658 0057698 215.5590 144.0426 02.13100356083735,64.5446,0.0057698,2.13100356,138.3658,215.559,144.0426
26566,COSMOS 2374 (GLONASS),NSO,11201.15707838,1 26566U 00063C   11201.15707838  .00000027  00000-0  10000-3 0  8574\,2 26566 064.5442 138.3023 0057678 215.5585 144.0516 02.13100356 83773,64.5442,0.0057678,2.13100356,138.3023,215.5585,144.0516
26566,COSMOS 2374 (GLONASS),NSO,11202.09560789,1 26566U 00063C   11202.09560789 +.00000026 +00000-0 +10000-3 0 08591\,2 26566 064.5442 138.2708 0057714 215.5605 144.0528 02.13100361083797,64.5442,0.0057714,2.13100361,138.2708,215.5605,144.0528
26566,COSMOS 2374 (GLONASS),NSO,11205.38044899,1 26566U 00063C   11205.38044899  .00000008  00000-0  10000-3 0  8584\,2 26566 064.5445 138.1598 0057682 215.4788 144.1350 02.13100377 83860,64.5445,0.0057682,2.13100377,138.1598,215.4788,144.135
26566,COSMOS 2374 (GLONASS),NSO,11206.31897396,1 26566U 00063C   11206.31897396 +.00000003 +00000-0 +10000-3 0 08592\,2 26566 064.5447 138.1280 0057717 215.4707 144.1428 02.13100379083880,64.5447,0.0057717,2.13100379,138.128,215.4707,144.1428
26566,COSMOS 2374 (GLONASS),NSO,11207.25749726,1 26566U 00063C   11207.25749726 +.00000001 +00000-0 +10000-3 0 08609\,2 26566 064.5444 138.0964 0057605 215.4783 144.1330 02.13100385083907,64.5444,0.0057605,2.13100385,138.0964,215.4783,144.133
26566,COSMOS 2374 (GLONASS),NSO,11208.19602230,1 26566U 00063C   11208.19602230  .00000001  00000-0  10000-3 0  8599\,2 26566 064.5441 138.0651 0057580 215.4457 144.1648 02.13100389 83925,64.5441,0.005758,2.13100389,138.0651,215.4457,144.1648
26566,COSMOS 2374 (GLONASS),NSO,11209.13455062,1 26566U 00063C   11209.13455062 +.00000003 +00000-0 +10000-3 0 08607\,2 26566 064.5442 138.0335 0057577 215.4405 144.1721 02.13100392083942,64.5442,0.0057577,2.13100392,138.0335,215.4405,144.1721
26566,COSMOS 2374 (GLONASS),NSO,11210.07307863,1 26566U 00063C   11210.07307863 +.00000007 +00000-0 +10000-3 0 08612\,2 26566 064.5442 138.0019 0057604 215.4158 144.1985 02.13100391083960,64.5442,0.0057604,2.13100391,138.0019,215.4158,144.1985
26566,COSMOS 2374 (GLONASS),NSO,11211.95014031,1 26566U 00063C   11211.95014031  .00000021  00000-0  10000-3 0  8607\,2 26566 064.5443 137.9385 0057609 215.4171 144.2049 02.13100393 84005,64.5443,0.0057609,2.13100393,137.9385,215.4171,144.2049
26566,COSMOS 2374 (GLONASS),NSO,11213.82720514,1 26566U 00063C   11213.82720514 +.00000032 +00000-0 +10000-3 0 08618\,2 26566 064.5444 137.8750 0057591 215.4217 144.2103 02.13100394084048,64.5444,0.0057591,2.13100394,137.875,215.4217,144.2103
26566,COSMOS 2374 (GLONASS),NSO,11214.29647128,1 26566U 00063C   11214.29647128  .00000033  00000-0  10000-3 0  8610\,2 26566 064.5445 137.8593 0057599 215.4205 144.2139 02.13100395 84050,64.5445,0.0057599,2.13100395,137.8593,215.4205,144.2139
26566,COSMOS 2374 (GLONASS),NSO,11215.23500123,1 26566U 00063C   11215.23500123 +.00000031 +00000-0 +10000-3 0 08627\,2 26566 064.5444 137.8277 0057586 215.4078 144.2293 02.13100393084073,64.5444,0.0057586,2.13100393,137.8277,215.4078,144.2293
26566,COSMOS 2374 (GLONASS),NSO,11217.58131635,1 26566U 00063C   11217.58131635  .00000007  00000-0  10000-3 0  8628\,2 26566 064.5446 137.7485 0057641 215.3850 144.2526 02.13100398 84124,64.5446,0.0057641,2.13100398,137.7485,215.385,144.2526
26566,COSMOS 2374 (GLONASS),NSO,11222.27393389,1 26566U 00063C   11222.27393389 -.00000041  00000-0  10000-3 0  8636\,2 26566 064.5441 137.5900 0057615 215.4100 144.2183 02.13100398 84229,64.5441,0.0057615,2.13100398,137.59,215.41,144.2183
